start=new Date('2022-01-04T00:00:00.000Z').valueOf();
sats=[{"ECCENTRICITY":"0.00025430","BSTAR":"0.00007382100000","OBJECT_ID":"2021-027Z","TLE_LINE2":"2 48115  53.0552 172.0498 0002543  94.5340 265.5939 15.06398179 42555","GP_ID":"193017647","MEAN_MOTION_DOT":"0.00000818","CLASSIFICATION_TYPE":"U","ARG_OF_PERICENTER":"94.5340","INCLINATION":"53.0552","SITE":"AFETR","REV_AT_EPOCH":"4255","MEAN_MOTION_DDOT":"0.0000000000000","MEAN_ANOMALY":"265.5939","ELEMENT_SET_NO":"999","RCS_SIZE":"LARGE","EPHEMERIS_TYPE":"0","PERIAPSIS":"545.458","FILE":"3256498","REF_FRAME":"TEME","CENTER_NAME":"EARTH","RA_OF_ASC_NODE":"172.0498","TLE_LINE1":"1 48115U 21027Z   22003.69980431  .00000818  00000-0  73821-4 0  9990","PERIOD":"95.592","MEAN_ELEMENT_THEORY":"SGP4","EPOCH":"2022-01-03T16:47:43.092384","OBJECT_TYPE":"PAYLOAD","SEMIMAJOR_AXIS":"6925.354","COUNTRY_CODE":"US","DECAY_DATE":null,"LAUNCH_DATE":"2021-04-07","NORAD_CAT_ID":"48115","APOAPSIS":"548.980","MEAN_MOTION":"15.06398179","TIME_SYSTEM":"UTC","OBJECT_NAME":"STARLINK-2452"},{"RA_OF_ASC_NODE":"182.0237","TLE_LINE1":"1 48116U 21027AA  22003.70719160 -.00000855  00000-0 -38476-4 0  9992","CENTER_NAME":"EARTH","REF_FRAME":"TEME","SEMIMAJOR_AXIS":"6925.363","OBJECT_TYPE":"PAYLOAD","MEAN_ELEMENT_THEORY":"SGP4","EPOCH":"2022-01-03T16:58:21.354240","PERIOD":"95.592","LAUNCH_DATE":"2021-04-07","DECAY_DATE":null,"COUNTRY_CODE":"US","TIME_SYSTEM":"UTC","OBJECT_NAME":"STARLINK-2454","NORAD_CAT_ID":"48116","APOAPSIS":"548.735","MEAN_MOTION":"15.06395424","BSTAR":"-0.00003847600000","ECCENTRICITY":"0.00021760","OBJECT_ID":"2021-027AA","TLE_LINE2":"2 48116  53.0523 182.0237 0002176  83.7699 276.3538 15.06395424 42415","MEAN_ANOMALY":"276.3538","ELEMENT_SET_NO":"999","MEAN_MOTION_DDOT":"0.0000000000000","ARG_OF_PERICENTER":"83.7699","SITE":"AFETR","REV_AT_EPOCH":"4241","INCLINATION":"53.0523","GP_ID":"193016400","MEAN_MOTION_DOT":"-0.00000855","CLASSIFICATION_TYPE":"U","FILE":"3256498","PERIAPSIS":"545.721","RCS_SIZE":"LARGE","EPHEMERIS_TYPE":"0"},{"OBJECT_ID":"2021-027AB","TLE_LINE2":"2 48117  53.0546 162.1387 0002479  88.2350 271.8923 15.06403047 42695","ECCENTRICITY":"0.00024790","BSTAR":"0.00005853400000","FILE":"3256498","EPHEMERIS_TYPE":"0","RCS_SIZE":"LARGE","PERIAPSIS":"545.487","MEAN_MOTION_DDOT":"0.0000000000000","MEAN_ANOMALY":"271.8923","ELEMENT_SET_NO":"999","GP_ID":"193017146","CLASSIFICATION_TYPE":"U","MEAN_MOTION_DOT":"0.00000590","ARG_OF_PERICENTER":"88.2350","REV_AT_EPOCH":"4269","SITE":"AFETR","INCLINATION":"53.0546","OBJECT_TYPE":"PAYLOAD","SEMIMAJOR_AXIS":"6925.339","PERIOD":"95.592","MEAN_ELEMENT_THEORY":"SGP4","EPOCH":"2022-01-03T16:18:32.437440","RA_OF_ASC_NODE":"162.1387","TLE_LINE1":"1 48117U 21027AB  22003.67954210  .00000590  00000-0  58534-4 0  9997","REF_FRAME":"TEME","CENTER_NAME":"EARTH","OBJECT_NAME":"STARLINK-2455","TIME_SYSTEM":"UTC","NORAD_CAT_ID":"48117","APOAPSIS":"548.921","MEAN_MOTION":"15.06403047","DECAY_DATE":null,"LAUNCH_DATE":"2021-04-07","COUNTRY_CODE":"US"},{"OBJECT_TYPE":"PAYLOAD","SEMIMAJOR_AXIS":"6925.337","PERIOD":"95.592","MEAN_ELEMENT_THEORY":"SGP4","EPOCH":"2022-01-03T18:09:59.990976","RA_OF_ASC_NODE":"161.7868","TLE_LINE1":"1 48118U 21027AC  22003.75694434  .00000847  00000-0  75742-4 0  9991","REF_FRAME":"TEME","CENTER_NAME":"EARTH","TIME_SYSTEM":"UTC","OBJECT_NAME":"STARLINK-2458","APOAPSIS":"548.534","NORAD_CAT_ID":"48118","MEAN_MOTION":"15.06403829","DECAY_DATE":null,"LAUNCH_DATE":"2021-04-07","COUNTRY_CODE":"US","OBJECT_ID":"2021-027AC","TLE_LINE2":"2 48118  53.0545 161.7868 0001924  95.1149 265.0060 15.06403829 42708","ECCENTRICITY":"0.00019240","BSTAR":"0.00007574200000","FILE":"3256498","RCS_SIZE":"LARGE","EPHEMERIS_TYPE":"0","PERIAPSIS":"545.869","MEAN_MOTION_DDOT":"0.0000000000000","MEAN_ANOMALY":"265.0060","ELEMENT_SET_NO":"999","GP_ID":"193017402","MEAN_MOTION_DOT":"0.00000847","CLASSIFICATION_TYPE":"U","ARG_OF_PERICENTER":"95.1149","SITE":"AFETR","INCLINATION":"53.0545","REV_AT_EPOCH":"4270"},{"ECCENTRICITY":"0.00020540","BSTAR":"0.00007498200000","TLE_LINE2":"2 48119  53.0545 162.3969 0002054  93.2150 266.9074 15.06397372 42670","OBJECT_ID":"2021-027AD","MEAN_MOTION_DDOT":"0.0000000000000","ELEMENT_SET_NO":"999","MEAN_ANOMALY":"266.9074","MEAN_MOTION_DOT":"0.00000835","GP_ID":"192969442","CLASSIFICATION_TYPE":"U","SITE":"AFETR","REV_AT_EPOCH":"4267","INCLINATION":"53.0545","ARG_OF_PERICENTER":"93.2150","FILE":"3255250","EPHEMERIS_TYPE":"0","RCS_SIZE":"LARGE","PERIAPSIS":"545.799","TLE_LINE1":"1 48119U 21027AD  22003.62057246  .00000835  00000-0  74982-4 0  9994","RA_OF_ASC_NODE":"162.3969","REF_FRAME":"TEME","CENTER_NAME":"EARTH","OBJECT_TYPE":"PAYLOAD","SEMIMAJOR_AXIS":"6925.357","PERIOD":"95.592","EPOCH":"2022-01-03T14:53:37.460544","MEAN_ELEMENT_THEORY":"SGP4","DECAY_DATE":null,"LAUNCH_DATE":"2021-04-07","COUNTRY_CODE":"US","OBJECT_NAME":"STARLINK-2459","TIME_SYSTEM":"UTC","MEAN_MOTION":"15.06397372","APOAPSIS":"548.644","NORAD_CAT_ID":"48119"},{"TIME_SYSTEM":"UTC","OBJECT_NAME":"STARLINK-2460","APOAPSIS":"548.762","NORAD_CAT_ID":"48120","MEAN_MOTION":"15.06406020","LAUNCH_DATE":"2021-04-07","DECAY_DATE":null,"COUNTRY_CODE":"US","SEMIMAJOR_AXIS":"6925.330","OBJECT_TYPE":"PAYLOAD","MEAN_ELEMENT_THEORY":"SGP4","EPOCH":"2022-01-03T16:37:06.667392","PERIOD":"95.592","RA_OF_ASC_NODE":"182.0886","TLE_LINE1":"1 48120U 21027AE  22003.69243828  .00001235  00000-0  10182-3 0  9992","CENTER_NAME":"EARTH","REF_FRAME":"TEME","FILE":"3256498","PERIAPSIS":"545.629","EPHEMERIS_TYPE":"0","RCS_SIZE":"LARGE","MEAN_ANOMALY":"270.3578","ELEMENT_SET_NO":"999","MEAN_MOTION_DDOT":"0.0000000000000","ARG_OF_PERICENTER":"89.7670","SITE":"AFETR","REV_AT_EPOCH":"4242","INCLINATION":"53.0552","GP_ID":"193016896","CLASSIFICATION_TYPE":"U","MEAN_MOTION_DOT":"0.00001235","OBJECT_ID":"2021-027AE","TLE_LINE2":"2 48120  53.0552 182.0886 0002262  89.7670 270.3578 15.06406020 42427","BSTAR":"0.00010182000000","ECCENTRICITY":"0.00022620"},{"BSTAR":"0.00005205300000","ECCENTRICITY":"0.00023470","OBJECT_ID":"2021-027AF","TLE_LINE2":"2 48121  53.0552 172.2163 0002347  92.6850 267.4407 15.06394181 42549","MEAN_ANOMALY":"267.4407","ELEMENT_SET_NO":"999","MEAN_MOTION_DDOT":"0.0000000000000","ARG_OF_PERICENTER":"92.6850","REV_AT_EPOCH":"4254","SITE":"AFETR","INCLINATION":"53.0552","GP_ID":"193016651","CLASSIFICATION_TYPE":"U","MEAN_MOTION_DOT":"0.00000493","FILE":"3256498","PERIAPSIS":"545.606","RCS_SIZE":"LARGE","EPHEMERIS_TYPE":"0","RA_OF_ASC_NODE":"172.2163","TLE_LINE1":"1 48121U 21027AF  22003.66389679  .00000493  00000-0  52053-4 0  9994","CENTER_NAME":"EARTH","REF_FRAME":"TEME","SEMIMAJOR_AXIS":"6925.366","OBJECT_TYPE":"PAYLOAD","MEAN_ELEMENT_THEORY":"SGP4","EPOCH":"2022-01-03T15:56:00.682656","PERIOD":"95.593","LAUNCH_DATE":"2021-04-07","DECAY_DATE":null,"COUNTRY_CODE":"US","OBJECT_NAME":"STARLINK-2462","TIME_SYSTEM":"UTC","APOAPSIS":"548.857","NORAD_CAT_ID":"48121","MEAN_MOTION":"15.06394181"},{"TLE_LINE1":"1 48122U 21027AG  22003.86427925  .00000304  00000-0  39299-4 0  9992","RA_OF_ASC_NODE":"166.3118","CENTER_NAME":"EARTH","REF_FRAME":"TEME","SEMIMAJOR_AXIS":"6925.368","OBJECT_TYPE":"PAYLOAD","EPOCH":"2022-01-03T20:44:33.727200","MEAN_ELEMENT_THEORY":"SGP4","PERIOD":"95.593","LAUNCH_DATE":"2021-04-07","DECAY_DATE":null,"COUNTRY_CODE":"US","OBJECT_NAME":"STARLINK-2463","TIME_SYSTEM":"UTC","MEAN_MOTION":"15.06393597","APOAPSIS":"548.469","NORAD_CAT_ID":"48122","BSTAR":"0.00003929900000","ECCENTRICITY":"0.00017840","TLE_LINE2":"2 48122  53.0549 166.3118 0001784  82.6525 277.4667 15.06393597 42259","OBJECT_ID":"2021-027AG","ELEMENT_SET_NO":"999","MEAN_ANOMALY":"277.4667","MEAN_MOTION_DDOT":"0.0000000000000","SITE":"AFETR","INCLINATION":"53.0549","REV_AT_EPOCH":"4225","ARG_OF_PERICENTER":"82.6525","GP_ID":"192973560","CLASSIFICATION_TYPE":"U","MEAN_MOTION_DOT":"0.00000304","FILE":"3255326","PERIAPSIS":"545.998","RCS_SIZE":"LARGE","EPHEMERIS_TYPE":"0"},{"TIME_SYSTEM":"UTC","OBJECT_NAME":"STARLINK-2464","MEAN_MOTION":"15.06450341","NORAD_CAT_ID":"48123","APOAPSIS":"548.864","DECAY_DATE":null,"LAUNCH_DATE":"2021-04-07","COUNTRY_CODE":"US","OBJECT_TYPE":"PAYLOAD","SEMIMAJOR_AXIS":"6925.194","PERIOD":"95.589","EPOCH":"2022-01-03T17:43:27.932736","MEAN_ELEMENT_THEORY":"SGP4","TLE_LINE1":"1 48123U 21027AH  22003.73851774 -.00007846  00000-0 -50764-3 0  9991","RA_OF_ASC_NODE":"161.8704","REF_FRAME":"TEME","CENTER_NAME":"EARTH","FILE":"3256498","RCS_SIZE":"LARGE","EPHEMERIS_TYPE":"0","PERIAPSIS":"545.255","MEAN_MOTION_DDOT":"0.0000000000000","ELEMENT_SET_NO":"999","MEAN_ANOMALY":"255.7324","GP_ID":"193017648","CLASSIFICATION_TYPE":"U","MEAN_MOTION_DOT":"-0.00007846","SITE":"AFETR","INCLINATION":"53.0545","REV_AT_EPOCH":"4270","ARG_OF_PERICENTER":"104.3954","TLE_LINE2":"2 48123  53.0545 161.8704 0002606 104.3954 255.7324 15.06450341 42709","OBJECT_ID":"2021-027AH","ECCENTRICITY":"0.00026060","BSTAR":"-0.00050764000000"},{"RA_OF_ASC_NODE":"171.8943","TLE_LINE1":"1 48124U 21027AJ  22003.73759954  .00000623  00000-0  60753-4 0  9993","REF_FRAME":"TEME","CENTER_NAME":"EARTH","OBJECT_TYPE":"PAYLOAD","SEMIMAJOR_AXIS":"6925.344","PERIOD":"95.592","MEAN_ELEMENT_THEORY":"SGP4","EPOCH":"2022-01-03T17:42:08.600256","DECAY_DATE":null,"LAUNCH_DATE":"2021-04-07","COUNTRY_CODE":"US","TIME_SYSTEM":"UTC","OBJECT_NAME":"STARLINK-2465","NORAD_CAT_ID":"48124","APOAPSIS":"548.732","MEAN_MOTION":"15.06401639","ECCENTRICITY":"0.00022000","BSTAR":"0.00006075300000","OBJECT_ID":"2021-027AJ","TLE_LINE2":"2 48124  53.0557 171.8943 0002200  88.7949 271.3292 15.06401639 42555","MEAN_MOTION_DDOT":"0.0000000000000","MEAN_ANOMALY":"271.3292","ELEMENT_SET_NO":"999","CLASSIFICATION_TYPE":"U","GP_ID":"193016401","MEAN_MOTION_DOT":"0.00000623","ARG_OF_PERICENTER":"88.7949","INCLINATION":"53.0557","SITE":"AFETR","REV_AT_EPOCH":"4255","FILE":"3256498","EPHEMERIS_TYPE":"0","RCS_SIZE":"LARGE","PERIAPSIS":"545.685"}];
